[
    {
        "Altitude(m)": 604221.2202638607,
        "Argument of Periapsis(deg)": 0.0,
        "Eccentricity": 0.0,
        "Inclination(deg)": 60.0,
        "Latitude(deg)": 14.117336735431874,
        "Longitude(deg)": 38.334126408029,
        "Mean Anomaly(deg)": 16.363600000000012,
        "RAAN(deg)": 130.0,
        "Satellite Name": "Test1 573",
        "Satellite Number": 573,
        "Semi-Major Axis(m)": 6980739.136638005,
        "Time(s)": 0
    },
    {
        "Altitude(m)": 604235.3618281748,
        "Argument of Periapsis(deg)": 0.00010418945913296404,
        "Eccentricity": 0.0,
        "Inclination(deg)": 60.0,
        "Latitude(deg)": 14.651734047761707,
        "Longitude(deg)": 38.62257238817845,
        "Mean Anomaly(deg)": 16.983706145461838,
        "RAAN(deg)": 129.99957995086024,
        "Satellite Name": "Test1 573",
        "Satellite Number": 573,
        "Semi-Major Axis(m)": 6980739.136638005,
        "Time(s)": 10
    },
    {
        "Altitude(m)": 604252.400491926,
        "Argument of Periapsis(deg)": 0.0002083789182659281,
        "Eccentricity": 0.0,
        "Inclination(deg)": 60.0,
        "Latitude(deg)": 15.185641548393919,
        "Longitude(deg)": 38.91262137410318,
        "Mean Anomaly(deg)": 17.603812290923667,
        "RAAN(deg)": 129.9991599017205,
        "Satellite Name": "Test1 573",
        "Satellite Number": 573,
        "Semi-Major Axis(m)": 6980739.136638005,
        "Time(s)": 20
    },
    {
        "Altitude(m)": 604272.3044260469,
        "Argument of Periapsis(deg)": 0.00031256837739889213,
        "Eccentricity": 0.0,
        "Inclination(deg)": 60.0,
        "Latitude(deg)": 15.719037932815816,
        "Longitude(deg)": 39.204340878004565,
        "Mean Anomaly(deg)": 18.223918436385496,
        "RAAN(deg)": 129.99873985258077,
        "Satellite Name": "Test1 573",
        "Satellite Number": 573,
        "Semi-Major Axis(m)": 6980739.136638005,
        "Time(s)": 30
    },
    {
        "Altitude(m)": 604295.0405267403,
        "Argument of Periapsis(deg)": 0.0004167578365318562,
        "Eccentricity": 0.0,
        "Inclination(deg)": 60.0,
        "Latitude(deg)": 16.2519015607984,
        "Longitude(deg)": 39.49779993470726,
        "Mean Anomaly(deg)": 18.84402458184732,
        "RAAN(deg)": 129.99831980344103,
        "Satellite Name": "Test1 573",
        "Satellite Number": 573,
        "Semi-Major Axis(m)": 6980739.136638005,
        "Time(s)": 40
    },
    {
        "Altitude(m)": 604320.5744344157,
        "Argument of Periapsis(deg)": 0.0005209472956648203,
        "Eccentricity": 0.0,
        "Inclination(deg)": 60.0,
        "Latitude(deg)": 16.784210440358418,
        "Longitude(deg)": 39.793068137239906,
        "Mean Anomaly(deg)": 19.46413072730915,
        "RAAN(deg)": 129.99789975430127,
        "Satellite Name": "Test1 573",
        "Satellite Number": 573,
        "Semi-Major Axis(m)": 6980739.136638005,
        "Time(s)": 50
    },
    {
        "Altitude(m)": 604348.8705531993,
        "Argument of Periapsis(deg)": 0.0006251367547977843,
        "Eccentricity": 0.0,
        "Inclination(deg)": 60.0,
        "Latitude(deg)": 17.31594221123955,
        "Longitude(deg)": 40.090216186144104,
        "Mean Anomaly(deg)": 20.084236872770976,
        "RAAN(deg)": 129.99747970516154,
        "Satellite Name": "Test1 573",
        "Satellite Number": 573,
        "Semi-Major Axis(m)": 6980739.136638005,
        "Time(s)": 60
    },
    {
        "Altitude(m)": 604379.8920710643,
        "Argument of Periapsis(deg)": 0.0007293262139307483,
        "Eccentricity": 0.0,
        "Inclination(deg)": 60.0,
        "Latitude(deg)": 17.847074127887442,
        "Longitude(deg)": 40.38931643966228,
        "Mean Anomaly(deg)": 20.70434301823283,
        "RAAN(deg)": 129.9970596560218,
        "Satellite Name": "Test1 573",
        "Satellite Number": 573,
        "Semi-Major Axis(m)": 6980739.136638005,
        "Time(s)": 70
    },
    {
        "Altitude(m)": 604413.6009804887,
        "Argument of Periapsis(deg)": 0.0008335156730637124,
        "Eccentricity": 0.0,
        "Inclination(deg)": 60.0,
        "Latitude(deg)": 18.37758304189184,
        "Longitude(deg)": 40.690441951955826,
        "Mean Anomaly(deg)": 21.32444916369466,
        "RAAN(deg)": 129.99663960688207,
        "Satellite Name": "Test1 573",
        "Satellite Number": 573,
        "Semi-Major Axis(m)": 6980739.136638005,
        "Time(s)": 80
    },
    {
        "Altitude(m)": 604449.9580997017,
        "Argument of Periapsis(deg)": 0.0009377051321966765,
        "Eccentricity": 0.0,
        "Inclination(deg)": 60.0,
        "Latitude(deg)": 18.907445383876247,
        "Longitude(deg)": 40.99366702512272,
        "Mean Anomaly(deg)": 21.944555309156485,
        "RAAN(deg)": 129.9962195577423,
        "Satellite Name": "Test1 573",
        "Satellite Number": 573,
        "Semi-Major Axis(m)": 6980739.136638005,
        "Time(s)": 90
    },
    {
        "Altitude(m)": 604488.9230945045,
        "Argument of Periapsis(deg)": 0.0010418945913296407,
        "Eccentricity": 0.0,
        "Inclination(deg)": 60.0,
        "Latitude(deg)": 19.436637144806703,
        "Longitude(deg)": 41.29906776216432,
        "Mean Anomaly(deg)": 22.564661454618314,
        "RAAN(deg)": 129.9957995086026,
        "Satellite Name": "Test1 573",
        "Satellite Number": 573,
        "Semi-Major Axis(m)": 6980739.136638005,
        "Time(s)": 100
    },
    {
        "Altitude(m)": 604530.4545005851,
        "Argument of Periapsis(deg)": 0.0011460840504626045,
        "Eccentricity": 0.0,
        "Inclination(deg)": 60.0,
        "Latitude(deg)": 19.9651338566916,
        "Longitude(deg)": 41.60672110804521,
        "Mean Anomaly(deg)": 23.18476760008014,
        "RAAN(deg)": 129.99537945946284,
        "Satellite Name": "Test1 573",
        "Satellite Number": 573,
        "Semi-Major Axis(m)": 6980739.136638005,
        "Time(s)": 110
    },
    {
        "Altitude(m)": 604574.5097463779,
        "Argument of Periapsis(deg)": 0.0012502735095955685,
        "Eccentricity": 0.0,
        "Inclination(deg)": 60.0,
        "Latitude(deg)": 20.492910572649865,
        "Longitude(deg)": 41.91670540461352,
        "Mean Anomaly(deg)": 23.80487374554197,
        "RAAN(deg)": 129.9949594103231,
        "Satellite Name": "Test1 573",
        "Satellite Number": 573,
        "Semi-Major Axis(m)": 6980739.136638005,
        "Time(s)": 120
    },
    {
        "Altitude(m)": 604621.0451764595,
        "Argument of Periapsis(deg)": 0.0013544629687285324,
        "Eccentricity": 0.0,
        "Inclination(deg)": 60.0,
        "Latitude(deg)": 21.01994184631723,
        "Longitude(deg)": 42.2291009465228,
        "Mean Anomaly(deg)": 24.424979891003794,
        "RAAN(deg)": 129.99453936118334,
        "Satellite Name": "Test1 573",
        "Satellite Number": 573,
        "Semi-Major Axis(m)": 6980739.136638005,
        "Time(s)": 130
    },
    {
        "Altitude(m)": 604670.0160754148,
        "Argument of Periapsis(deg)": 0.0014586524278614966,
        "Eccentricity": 0.0,
        "Inclination(deg)": 60.0,
        "Latitude(deg)": 21.546201710559924,
        "Longitude(deg)": 42.5439890252953,
        "Mean Anomaly(deg)": 25.045086036465623,
        "RAAN(deg)": 129.99411931204364,
        "Satellite Name": "Test1 573",
        "Satellite Number": 573,
        "Semi-Major Axis(m)": 6980739.136638005,
        "Time(s)": 140
    },
    {
        "Altitude(m)": 604721.3766922066,
        "Argument of Periapsis(deg)": 0.0015628418869944607,
        "Eccentricity": 0.0,
        "Inclination(deg)": 60.0,
        "Latitude(deg)": 22.071663655470346,
        "Longitude(deg)": 42.86145248728482,
        "Mean Anomaly(deg)": 25.66519218192745,
        "RAAN(deg)": 129.99369926290387,
        "Satellite Name": "Test1 573",
        "Satellite Number": 573,
        "Semi-Major Axis(m)": 6980739.136638005,
        "Time(s)": 150
    },
    {
        "Altitude(m)": 604775.0802650205,
        "Argument of Periapsis(deg)": 0.0016670313461274247,
        "Eccentricity": 0.0,
        "Inclination(deg)": 60.0,
        "Latitude(deg)": 22.596300605612566,
        "Longitude(deg)": 43.181576292673206,
        "Mean Anomaly(deg)": 26.285298327389278,
        "RAAN(deg)": 129.99327921376414,
        "Satellite Name": "Test1 573",
        "Satellite Number": 573,
        "Semi-Major Axis(m)": 6980739.136638005,
        "Time(s)": 160
    },
    {
        "Altitude(m)": 604831.079046576,
        "Argument of Periapsis(deg)": 0.0017712208052603888,
        "Eccentricity": 0.0,
        "Inclination(deg)": 60.0,
        "Latitude(deg)": 23.120084896483583,
        "Longitude(deg)": 43.5044465626294,
        "Mean Anomaly(deg)": 26.90540447285113,
        "RAAN(deg)": 129.99285916462438,
        "Satellite Name": "Test1 573",
        "Satellite Number": 573,
        "Semi-Major Axis(m)": 6980739.136638005,
        "Time(s)": 170
    },
    {
        "Altitude(m)": 604889.3243298662,
        "Argument of Periapsis(deg)": 0.001875410264393353,
        "Eccentricity": 0.0,
        "Inclination(deg)": 60.0,
        "Latitude(deg)": 23.642988250163032,
        "Longitude(deg)": 43.83015114038025,
        "Mean Anomaly(deg)": 27.525510618312957,
        "RAAN(deg)": 129.99243911548467,
        "Satellite Name": "Test1 573",
        "Satellite Number": 573,
        "Semi-Major Axis(m)": 6980739.136638005,
        "Time(s)": 180
    },
    {
        "Altitude(m)": 604949.7664743541,
        "Argument of Periapsis(deg)": 0.0019795997235263173,
        "Eccentricity": 0.0,
        "Inclination(deg)": 60.0,
        "Latitude(deg)": 24.164981750116205,
        "Longitude(deg)": 44.15878015331338,
        "Mean Anomaly(deg)": 28.14561676377479,
        "RAAN(deg)": 129.99201906634488,
        "Satellite Name": "Test1 573",
        "Satellite Number": 573,
        "Semi-Major Axis(m)": 6980739.136638005,
        "Time(s)": 190
    }
]